[
   {
      "id"     : "green_space",
      "shape"   : "Area",
      "z_index"  : 0,
      "z_index_name"  : 3,
      "fill_color"  : "green",
      "text_color" : "ink",
      "font": "modern.ttf",
      "font_italic": 1,
      "font_size_mm": 2.0,
      "font_capitalize": 1,
      "font_spacing": 150,
      "max_mip": 5,
      "text_max_mip": 2
   },
{
   "id"     : "forest",
   "base_id": "green_space",
   "detect_tags" :
   {
     "landuse" : "forest"
   }
},
{
   "id"     : "grass",
   "base_id": "green_space",
   "detect_tags" :
   {
     "landuse" : "grass"
   }
},
{
   "id"     : "wood",
   "base_id": "green_space",
   "detect_tags" :
   {
     "natural" : "wood"
   }
},
{
   "id"      : "park",
   "base_id" : "green_space",
   "detect_tags" :
   {
     "leisure" : "park"
   }
},
{
   "id"     : "garden",
   "base_id" : "green_space",
   "detect_tags" :
   {
     "leisure" : "garden"
   }
},
{
   "id"     : "golf_course",
   "base_id" : "green_space",
   "detect_tags" :
   {
     "leisure" : "golf_course"
   }
},
{
   "id"     : "pitch",
   "base_id" : "green_space",
   "detect_tags" :
   {
     "leisure" : "pitch"
   }
},
{
   "id"     : "recreation_ground",
   "base_id" : "green_space",
   "detect_tags" :
   {
     "landuse" : "recreation_ground"
   }
},
{
   "id"     : "cemetry",
   "base_id" : "green_space",
   "detect_tags" :
   {
     "landuse" : "cemetery"
   }
},
{
   "id"     : "grave_yard",
   "base_id" : "green_space",
   "detect_tags" :
   {
     "amenity" : "grave_yard"
   }
}
]
